SKYSAT-A                
1 39418U 13066C   26065.59193805  .00004165  00000+0  24295-3 0  9990
2 39418  97.3956 118.2314 0020328 312.0487  47.9013 15.12326310672975
SKYSAT-B                
1 40072U 14037D   26065.36665546  .00002449  00000+0  27543-3 0  9990
2 40072  98.3725  18.5652 0004244 247.3342 112.7424 14.87710717630671
SKYSAT-C1               
1 41601U 16040C   26065.04900784  .00010713  00000+0  32342-3 0  9992
2 41601  96.9703 102.4170 0003810  60.9373 299.2252 15.34420377542045
SKYSAT-C4               
1 41771U 16058B   26065.61193913  .00020908  00000+0  44099-3 0  9999
2 41771  96.9290  91.8554 0000818  99.4783 260.6560 15.45242825529612
SKYSAT-C5               
1 41772U 16058C   26065.36886093  .00010041  00000+0  30538-3 0  9990
2 41772  97.0615 110.5767 0001803  85.3164 274.8286 15.34211377527989
SKYSAT-C2               
1 41773U 16058D   26065.52367924  .00015513  00000+0  39548-3 0  9995
2 41773  97.0281  91.5997 0005182  75.4711 284.7110 15.39598445529240
SKYSAT-C3               
1 41774U 16058E   26065.26182539  .00023595  00000+0  45033-3 0  9999
2 41774  96.9176 100.2785 0001616 106.4419 253.7010 15.48133107530161
SKYSAT-C11              
1 42987U 17068A   26065.62247574  .00041822  00000+0  69029-3 0  9993
2 42987  97.4200 210.5058 0000732  82.1417 277.9919 15.52158260467309
SKYSAT-C10              
1 42988U 17068B   26065.33677099  .00012956  00000+0  41408-3 0  9998
2 42988  97.4335 201.4326 0001081  89.0057 271.1309 15.32579452466597
SKYSAT-C9               
1 42989U 17068C   26065.33167458  .00017605  00000+0  46057-3 0  9993
2 42989  97.4262 201.4360 0009728 143.8914 216.2990 15.38754361466925
SKYSAT-C8               
1 42990U 17068D   26065.65174193  .00007272  00000+0  21887-3 0  9997
2 42990  97.4349 201.1759 0001343  98.2759 261.8636 15.34664920466578
SKYSAT-C7               
1 42991U 17068E   26065.64172886  .00015978  00000+0  47783-3 0  9999
2 42991  97.4365 202.1498 0007360 112.8834 247.3187 15.34621685466638
SKYSAT-C6               
1 42992U 17068F   26065.63364754  .00013871  00000+0  44541-3 0  9995
2 42992  97.4397 202.4356 0003538 135.5229 224.6298 15.32408299466603
SKYSAT-C12              
1 43797U 18099AR  26065.52132718  .00020421  00000+0  42737-3 0  9999
2 43797  96.9381  93.0704 0005182 147.0611 213.0963 15.45464340405983
SKYSAT-C13              
1 43802U 18099AW  26065.36407817  .00091342  00000+0  58501-3 0  9999
2 43802  96.9412 112.9933 0003598 211.7310 148.3740 15.76024732406642
FLOCK 4Q-16             
1 58271U 23174R   26065.45176272  .00028532  00000+0  61396-3 0  9990
2 58271  97.3870 151.5266 0007961 169.1421 191.0001 15.44566349129698
