[{"OBJECT_NAME":"SKYSAT-A","OBJECT_ID":"2013-066C","EPOCH":"2026-03-06T14:12:23.447520","MEAN_MOTION":15.1232631,"ECCENTRICITY":0.00203281,"INCLINATION":97.3956,"RA_OF_ASC_NODE":118.2314,"ARG_OF_PERICENTER":312.0487,"MEAN_ANOMALY":47.9013,"EPHEMERIS_TYPE":0,"CLASSIFICATION_TYPE":"U","NORAD_CAT_ID":39418,"ELEMENT_SET_NO":999,"REV_AT_EPOCH":67297,"BSTAR":0.00024295394,"MEAN_MOTION_DOT":4.165e-5,"MEAN_MOTION_DDOT":0},{"OBJECT_NAME":"SKYSAT-B","OBJECT_ID":"2014-037D","EPOCH":"2026-03-06T08:47:59.031744","MEAN_MOTION":14.87710717,"ECCENTRICITY":0.00042443,"INCLINATION":98.3725,"RA_OF_ASC_NODE":18.5652,"ARG_OF_PERICENTER":247.3342,"MEAN_ANOMALY":112.7424,"EPHEMERIS_TYPE":0,"CLASSIFICATION_TYPE":"U","NORAD_CAT_ID":40072,"ELEMENT_SET_NO":999,"REV_AT_EPOCH":63067,"BSTAR":0.00027542854,"MEAN_MOTION_DOT":2.449e-5,"MEAN_MOTION_DDOT":0},{"OBJECT_NAME":"SKYSAT-C1","OBJECT_ID":"2016-040C","EPOCH":"2026-03-06T01:10:34.277376","MEAN_MOTION":15.34420377,"ECCENTRICITY":0.00038102,"INCLINATION":96.9703,"RA_OF_ASC_NODE":102.417,"ARG_OF_PERICENTER":60.9373,"MEAN_ANOMALY":299.2252,"EPHEMERIS_TYPE":0,"CLASSIFICATION_TYPE":"U","NORAD_CAT_ID":41601,"ELEMENT_SET_NO":999,"REV_AT_EPOCH":54204,"BSTAR":0.00032341937,"MEAN_MOTION_DOT":0.00010713,"MEAN_MOTION_DDOT":0},{"OBJECT_NAME":"SKYSAT-C4","OBJECT_ID":"2016-058B","EPOCH":"2026-03-06T14:41:11.540832","MEAN_MOTION":15.45242825,"ECCENTRICITY":8.184e-5,"INCLINATION":96.929,"RA_OF_ASC_NODE":91.8554,"ARG_OF_PERICENTER":99.4783,"MEAN_ANOMALY":260.656,"EPHEMERIS_TYPE":0,"CLASSIFICATION_TYPE":"U","NORAD_CAT_ID":41771,"ELEMENT_SET_NO":999,"REV_AT_EPOCH":52961,"BSTAR":0.00044099471,"MEAN_MOTION_DOT":0.00020908,"MEAN_MOTION_DDOT":0},{"OBJECT_NAME":"SKYSAT-C5","OBJECT_ID":"2016-058C","EPOCH":"2026-03-06T08:51:09.584352","MEAN_MOTION":15.34211377,"ECCENTRICITY":0.00018036,"INCLINATION":97.0615,"RA_OF_ASC_NODE":110.5767,"ARG_OF_PERICENTER":85.3164,"MEAN_ANOMALY":274.8286,"EPHEMERIS_TYPE":0,"CLASSIFICATION_TYPE":"U","NORAD_CAT_ID":41772,"ELEMENT_SET_NO":999,"REV_AT_EPOCH":52798,"BSTAR":0.00030537701,"MEAN_MOTION_DOT":0.00010041,"MEAN_MOTION_DDOT":0},{"OBJECT_NAME":"SKYSAT-C2","OBJECT_ID":"2016-058D","EPOCH":"2026-03-06T12:34:05.886336","MEAN_MOTION":15.39598445,"ECCENTRICITY":0.00051829,"INCLINATION":97.0281,"RA_OF_ASC_NODE":91.5997,"ARG_OF_PERICENTER":75.4711,"MEAN_ANOMALY":284.711,"EPHEMERIS_TYPE":0,"CLASSIFICATION_TYPE":"U","NORAD_CAT_ID":41773,"ELEMENT_SET_NO":999,"REV_AT_EPOCH":52924,"BSTAR":0.00039547505,"MEAN_MOTION_DOT":0.00015513,"MEAN_MOTION_DDOT":0},{"OBJECT_NAME":"SKYSAT-C3","OBJECT_ID":"2016-058E","EPOCH":"2026-03-06T06:17:01.713696","MEAN_MOTION":15.48133107,"ECCENTRICITY":0.00016162,"INCLINATION":96.9176,"RA_OF_ASC_NODE":100.2785,"ARG_OF_PERICENTER":106.4419,"MEAN_ANOMALY":253.701,"EPHEMERIS_TYPE":0,"CLASSIFICATION_TYPE":"U","NORAD_CAT_ID":41774,"ELEMENT_SET_NO":999,"REV_AT_EPOCH":53016,"BSTAR":0.00045033047,"MEAN_MOTION_DOT":0.00023595,"MEAN_MOTION_DDOT":0},{"OBJECT_NAME":"SKYSAT-C11","OBJECT_ID":"2017-068A","EPOCH":"2026-03-06T14:56:21.903936","MEAN_MOTION":15.5215826,"ECCENTRICITY":7.328e-5,"INCLINATION":97.42,"RA_OF_ASC_NODE":210.5058,"ARG_OF_PERICENTER":82.1417,"MEAN_ANOMALY":277.9919,"EPHEMERIS_TYPE":0,"CLASSIFICATION_TYPE":"U","NORAD_CAT_ID":42987,"ELEMENT_SET_NO":999,"REV_AT_EPOCH":46730,"BSTAR":0.00069028726,"MEAN_MOTION_DOT":0.00041822,"MEAN_MOTION_DDOT":0},{"OBJECT_NAME":"SKYSAT-C10","OBJECT_ID":"2017-068B","EPOCH":"2026-03-06T08:04:57.013536","MEAN_MOTION":15.32579452,"ECCENTRICITY":0.00010818,"INCLINATION":97.4335,"RA_OF_ASC_NODE":201.4326,"ARG_OF_PERICENTER":89.0057,"MEAN_ANOMALY":271.1309,"EPHEMERIS_TYPE":0,"CLASSIFICATION_TYPE":"U","NORAD_CAT_ID":42988,"ELEMENT_SET_NO":999,"REV_AT_EPOCH":46659,"BSTAR":0.00041408086,"MEAN_MOTION_DOT":0.00012956,"MEAN_MOTION_DDOT":0},{"OBJECT_NAME":"SKYSAT-C9","OBJECT_ID":"2017-068C","EPOCH":"2026-03-06T07:57:36.683712","MEAN_MOTION":15.38754361,"ECCENTRICITY":0.00097286,"INCLINATION":97.4262,"RA_OF_ASC_NODE":201.436,"ARG_OF_PERICENTER":143.8914,"MEAN_ANOMALY":216.299,"EPHEMERIS_TYPE":0,"CLASSIFICATION_TYPE":"U","NORAD_CAT_ID":42989,"ELEMENT_SET_NO":999,"REV_AT_EPOCH":46692,"BSTAR":0.00046056586,"MEAN_MOTION_DOT":0.00017605,"MEAN_MOTION_DDOT":0},{"OBJECT_NAME":"SKYSAT-C8","OBJECT_ID":"2017-068D","EPOCH":"2026-03-06T15:38:30.502752","MEAN_MOTION":15.3466492,"ECCENTRICITY":0.00013437,"INCLINATION":97.4349,"RA_OF_ASC_NODE":201.1759,"ARG_OF_PERICENTER":98.2759,"MEAN_ANOMALY":261.8636,"EPHEMERIS_TYPE":0,"CLASSIFICATION_TYPE":"U","NORAD_CAT_ID":42990,"ELEMENT_SET_NO":999,"REV_AT_EPOCH":46657,"BSTAR":0.00021886962,"MEAN_MOTION_DOT":7.272e-5,"MEAN_MOTION_DDOT":0},{"OBJECT_NAME":"SKYSAT-C7","OBJECT_ID":"2017-068E","EPOCH":"2026-03-06T15:24:05.373504","MEAN_MOTION":15.34621685,"ECCENTRICITY":0.00073604,"INCLINATION":97.4365,"RA_OF_ASC_NODE":202.1498,"ARG_OF_PERICENTER":112.8834,"MEAN_ANOMALY":247.3187,"EPHEMERIS_TYPE":0,"CLASSIFICATION_TYPE":"U","NORAD_CAT_ID":42991,"ELEMENT_SET_NO":999,"REV_AT_EPOCH":46663,"BSTAR":0.00047782889,"MEAN_MOTION_DOT":0.00015978,"MEAN_MOTION_DDOT":0},{"OBJECT_NAME":"SKYSAT-C6","OBJECT_ID":"2017-068F","EPOCH":"2026-03-06T15:12:27.147456","MEAN_MOTION":15.32408299,"ECCENTRICITY":0.0003538,"INCLINATION":97.4397,"RA_OF_ASC_NODE":202.4356,"ARG_OF_PERICENTER":135.5229,"MEAN_ANOMALY":224.6298,"EPHEMERIS_TYPE":0,"CLASSIFICATION_TYPE":"U","NORAD_CAT_ID":42992,"ELEMENT_SET_NO":999,"REV_AT_EPOCH":46660,"BSTAR":0.00044541386,"MEAN_MOTION_DOT":0.00013871,"MEAN_MOTION_DDOT":0},{"OBJECT_NAME":"SKYSAT-C12","OBJECT_ID":"2018-099AR","EPOCH":"2026-03-06T12:30:42.668352","MEAN_MOTION":15.4546434,"ECCENTRICITY":0.00051822,"INCLINATION":96.9381,"RA_OF_ASC_NODE":93.0704,"ARG_OF_PERICENTER":147.0611,"MEAN_ANOMALY":213.0963,"EPHEMERIS_TYPE":0,"CLASSIFICATION_TYPE":"U","NORAD_CAT_ID":43797,"ELEMENT_SET_NO":999,"REV_AT_EPOCH":40598,"BSTAR":0.00042736695,"MEAN_MOTION_DOT":0.00020421,"MEAN_MOTION_DDOT":0},{"OBJECT_NAME":"SKYSAT-C13","OBJECT_ID":"2018-099AW","EPOCH":"2026-03-06T08:44:16.353888","MEAN_MOTION":15.76024732,"ECCENTRICITY":0.00035982,"INCLINATION":96.9412,"RA_OF_ASC_NODE":112.9933,"ARG_OF_PERICENTER":211.731,"MEAN_ANOMALY":148.374,"EPHEMERIS_TYPE":0,"CLASSIFICATION_TYPE":"U","NORAD_CAT_ID":43802,"ELEMENT_SET_NO":999,"REV_AT_EPOCH":40664,"BSTAR":0.00058501018,"MEAN_MOTION_DOT":0.00091342,"MEAN_MOTION_DDOT":0},{"OBJECT_NAME":"FLOCK 4Q-16","OBJECT_ID":"2023-174R","EPOCH":"2026-03-06T10:50:32.299008","MEAN_MOTION":15.44566349,"ECCENTRICITY":0.00079617,"INCLINATION":97.387,"RA_OF_ASC_NODE":151.5266,"ARG_OF_PERICENTER":169.1421,"MEAN_ANOMALY":191.0001,"EPHEMERIS_TYPE":0,"CLASSIFICATION_TYPE":"U","NORAD_CAT_ID":58271,"ELEMENT_SET_NO":999,"REV_AT_EPOCH":12969,"BSTAR":0.00061395844,"MEAN_MOTION_DOT":0.00028532,"MEAN_MOTION_DDOT":0}]
